NORAD_CAT_ID,OBJECT_NAME,OBJECT_TYPE,EPOCH,MEAN_MOTION,ECCENTRICITY,INCLINATION,RA_OF_ASC_NODE,ARG_OF_PERICENTER,MEAN_ANOMALY,BSTAR,MEAN_MOTION_DOT,MEAN_MOTION_DDOT,TLE_LINE0,TLE_LINE1,TLE_LINE2,SEMIMAJOR_AXIS,PERIOD,APOGEE,PERIGEE,DECAYED
52474.0,STARLINK-3855,PAYLOAD,2022-05-23 04:00:00,15.73185618,0.0002159,53.2153,183.3412,27.1988,305.0014,0.00046297,0.00064821,0.0,0 STARLINK-3855,1 52474U 22049Z   22143.16667824  .00064821  00000-0  46297-3 0  9993,2 52474  53.2153 183.3412 0002159  27.1988 305.0014 15.73185618  2816,6727.936,91.534,351.254,348.349,0.0
52474.0,STARLINK-3855,PAYLOAD,2022-05-23 14:00:01,15.72918523,0.0002081,53.2167,181.2844,33.1221,140.2473,0.0030601999999999,0.00447123,0.0,0 STARLINK-3855,1 52474U 22049Z   22143.58334491  .00447123  00000-0  30602-2 0  9992,2 52474  53.2167 181.2844 0002081  33.1221 140.2473 15.72918523  1307,6728.698,91.55,351.963,349.163,0.0
52474.0,STARLINK-3855,PAYLOAD,2022-05-23 16:00:00,15.73108601,0.0002034,53.2167,180.8719,31.9073,253.584,0.001111,0.00157646,0.0,0 STARLINK-3855,1 52474U 22049Z   22143.66667824  .00157646  00000-0  11110-2 0  9991,2 52474  53.2167 180.8719 0002034  31.9073 253.5840 15.73108601  2881,6728.156,91.538,351.389,348.652,0.0
52474.0,STARLINK-3855,PAYLOAD,2022-05-23 20:00:01,15.73259271,0.0002158,53.2147,180.0425,20.6996,129.3343,-0.0002712,-0.00038609,0.0,0 STARLINK-3855,1 52474U 22049Z   22143.83334491 -.00038609  00000-0 -27120-3 0  9999,2 52474  53.2147 180.0425 0002158  20.6996 129.3343 15.73259271  2913,6727.726,91.53,351.043,348.139,0.0
52474.0,STARLINK-3855,PAYLOAD,2022-05-23 22:00:01,15.73246112,0.0002085,53.2146,179.6297,20.3948,241.9553,-0.00013079,-0.00018974,0.0,0 STARLINK-3855,1 52474U 22049Z   22143.91668981 -.00018974  00000-0 -13079-3 0  9993,2 52474  53.2146 179.6297 0002085  20.3948 241.9553 15.73246112  1302,6727.764,91.53,351.031,348.226,0.0
52474.0,STARLINK-3855,PAYLOAD,2022-05-24 02:59:17,15.73297115,0.0002025,53.2149,178.6012,17.8091,342.3,0.00057562,0.00081292,0.0,0 STARLINK-3855,1 52474U 22049Z   22144.12451118  .00081292  00000-0  57562-3 0  9995,2 52474  53.2149 178.6012 0002025  17.8091 342.3000 15.73297115  2968,6727.618,91.528,350.846,348.121,0.0
52474.0,STARLINK-3855,PAYLOAD,2022-05-24 12:08:11,15.73185141,0.0002413,53.2149,176.7151,21.7329,338.3793,-0.00012888,-0.0001866,0.0,0 STARLINK-3855,1 52474U 22049Z   22144.50569438 -.00018660  00000-0 -12888-3 0  9995,2 52474  53.2149 176.7151 0002413  21.7329 338.3793 15.73185141  2868,6727.938,91.534,351.426,348.17900000000014,0.0
52474.0,STARLINK-3855,PAYLOAD,2022-05-24 14:00:01,15.73180447,0.000238,53.2147,176.3328,18.4091,61.7672,-9.7913e-05,-0.0001433,0.0,0 STARLINK-3855,1 52474U 22049Z   22144.58334491 -.00014330  00000-0 -97913-4 0  9995,2 52474  53.2147 176.3328 0002380  18.4091  61.7672 15.73180447  3037,6727.951,91.534,351.417,348.215,0.0
52474.0,STARLINK-3855,PAYLOAD,2022-05-24 22:00:00,15.73143593,0.000214,53.215,174.6812,18.2175,150.8813,0.00071046,0.00100045,0.0,0 STARLINK-3855,1 52474U 22049Z   22144.91667824  .00100045  00000-0  71046-3 0  9996,2 52474  53.2150 174.6812 0002140  18.2175 150.8813 15.73143593  1301,6728.056,91.536,351.361,348.481,0.0
52474.0,STARLINK-3855,PAYLOAD,2022-05-25 06:00:00,15.73226497,0.0002274,53.2151,173.0328,19.9129,238.0841,0.00016279,0.00022313,0.0,0 STARLINK-3855,1 52474U 22049Z   22145.25001157  .00022313  00000-0  16279-3 0  9993,2 52474  53.2151 173.0328 0002274  19.9129 238.0841 15.73226497  3130,6727.82,91.532,351.215,348.155,0.0
52474.0,STARLINK-3855,PAYLOAD,2022-05-25 14:00:01,15.73238913,0.0002425,53.2143,171.3842,16.4716,330.4872,-0.00012645,-0.00018362,0.0,0 STARLINK-3855,1 52474U 22049Z   22145.58334491 -.00018362  00000-0 -12645-3 0  9993,2 52474  53.2143 171.3842 0002425  16.4716 330.4872 15.73238913  1309,6727.784000000002,91.531,351.281,348.01800000000014,0.0
52474.0,STARLINK-3855,PAYLOAD,2022-05-25 22:00:00,15.73216771,0.0002114,53.2143,169.7325,18.5897,57.3536,-3.7031e-05,-5.819e-05,0.0,0 STARLINK-3855,1 52474U 22049Z   22145.91667824 -.00005819  00000-0 -37031-4 0  9999,2 52474  53.2143 169.7325 0002114  18.5897  57.3536 15.73216771  3249,6727.847,91.532,351.135,348.29,0.0
52474.0,STARLINK-3855,PAYLOAD,2022-05-26 12:55:32,15.73244335,0.000189,53.2144,166.6547,17.3297,342.7787,0.00024623,0.00034143,0.0,0 STARLINK-3855,1 52474U 22049Z   22146.53857063  .00034143  00000-0  24623-3 0  9996,2 52474  53.2144 166.6547 0001890  17.3297 342.7787 15.73244335  3340,6727.769,91.531,350.905,348.362,0.0
52474.0,STARLINK-3855,PAYLOAD,2022-05-26 14:00:01,15.7317928,0.0002386,53.2142,166.4354,16.1891,237.6069,0.0004216,0.00058916,0.0,0 STARLINK-3855,1 52474U 22049Z   22146.58334491  .00058916  00000-0  42160-3 0  9996,2 52474  53.2142 166.4354 0002386  16.1891 237.6069 15.73179280  1305,6727.954000000002,91.534,351.425,348.214,0.0
52474.0,STARLINK-3855,PAYLOAD,2022-05-26 20:00:01,15.73220705,0.0002255,53.2148,165.1965,20.4911,210.0004,-0.00035927,-0.0005078999999999,0.0,0 STARLINK-3855,1 52474U 22049Z   22146.83334491 -.00050790  00000-0 -35927-3 0  9991,2 52474  53.2148 165.1965 0002255  20.4911 210.0004 15.73220705  3384,6727.8359999999975,91.532,351.218,348.184,0.0
52474.0,STARLINK-3855,PAYLOAD,2022-05-26 22:00:00,15.73192828,0.0002217,53.2145,164.7837,21.6355,321.1003,-7.1736e-05,-0.00010674,0.0,0 STARLINK-3855,1 52474U 22049Z   22146.91667824 -.00010674  00000-0 -71736-4 0  9995,2 52474  53.2145 164.7837 0002217  21.6355 321.1003 15.73192828  1304,6727.916,91.534,351.272,348.289,0.0
52474.0,STARLINK-3855,PAYLOAD,2022-05-27 14:00:01,15.7342832,0.0002509,53.2153,161.4883,24.497,136.0961,-0.0040825,-0.00543549,0.0,0 STARLINK-3855,1 52474U 22049Z   22147.58334491 -.00543549  00000-0 -40825-2 0  9995,2 52474  53.2153 161.4883 0002509  24.4970 136.0961 15.73428320  1301,6727.244000000002,91.52,350.797,347.421,0.0
52474.0,STARLINK-3855,PAYLOAD,2022-05-27 16:00:00,15.73259012,0.0002409,53.2138,161.0733,23.3078,249.5675,-0.00063544,-0.00089102,0.0,0 STARLINK-3855,1 52474U 22049Z   22147.66667824 -.00089102  00000-0 -63544-3 0  9997,2 52474  53.2138 161.0733 0002409  23.3078 249.5675 15.73259012  3517,6727.727,91.53,351.213,347.971,0.0
52474.0,STARLINK-3855,PAYLOAD,2022-05-27 22:00:01,15.73175465,0.0002159,53.2138,159.8347,22.2514,227.4246,0.0006466,0.00091023,0.0,0 STARLINK-3855,1 52474U 22049Z   22147.91668981  .00091023  00000-0  64660-3 0  9993,2 52474  53.2138 159.8347 0002159  22.2514 227.4246 15.73175465  1301,6727.965,91.535,351.283,348.37800000000016,0.0
52474.0,STARLINK-3855,PAYLOAD,2022-05-28 06:00:02,15.73260527,0.0002259,53.214,158.1867,20.6573,317.9666,-0.0005168999999999,-0.00072738,0.0,0 STARLINK-3855,1 52474U 22049Z   22148.25002315 -.00072738  00000-0 -51690-3 0  9997,2 52474  53.2140 158.1867 0002259  20.6573 317.9666 15.73260527  3612,6727.723000000001,91.53,351.107,348.0680000000001,0.0
52474.0,STARLINK-3855,PAYLOAD,2022-05-28 14:00:01,15.73264751,0.0002419,53.2138,156.5373,19.1248,48.4049,-0.00042816,-0.00060457,0.0,0 STARLINK-3855,1 52474U 22049Z   22148.58334491 -.00060457  00000-0 -42816-3 0  9991,2 52474  53.2138 156.5373 0002419  19.1248  48.4049 15.73264751  3662,6727.7109999999975,91.529,351.20300000000015,347.9480000000001,0.0
52474.0,STARLINK-3855,PAYLOAD,2022-05-28 22:00:00,15.73221571,0.0002269,53.2141,154.8856,28.3221,128.1956,0.00028559,0.00039689,0.0,0 STARLINK-3855,1 52474U 22049Z   22148.91667824  .00039689  00000-0  28559-3 0  9996,2 52474  53.2141 154.8856 0002269  28.3221 128.1956 15.73221571  3711,6727.834,91.532,351.225,348.172,0.0
52474.0,STARLINK-3855,PAYLOAD,2022-05-29 14:00:01,15.73187569,0.0002383,53.2136,151.5882,20.8735,313.503,-0.0010143,-0.00140569,0.0,0 STARLINK-3855,1 52474U 22049Z   22149.58334491 -.00140569  00000-0 -10143-2 0  9992,2 52474  53.2136 151.5882 0002383  20.8735 313.5030 15.73187569  3825,6727.931,91.534,351.399,348.19199999999995,0.0
52474.0,STARLINK-3855,PAYLOAD,2022-05-29 20:00:01,15.73066934,0.0002087,53.2138,150.3496,19.6389,291.4058,0.00023047,0.00031665,0.0,0 STARLINK-3855,1 52474U 22049Z   22149.83334491  .00031665  00000-0  23047-3 0  9992,2 52474  53.2138 150.3496 0002087  19.6389 291.4058 15.73066934  3856,6728.275,91.541,351.5440000000001,348.735,0.0
52474.0,STARLINK-3855,PAYLOAD,2022-05-29 22:00:00,15.73046452,0.0002038,53.2138,149.937,20.2153,43.032,0.00059443,0.00083087,0.0,0 STARLINK-3855,1 52474U 22049Z   22149.91667824  .00083087  00000-0  59443-3 0  9994,2 52474  53.2138 149.9370 0002038  20.2153  43.0320 15.73046452  1308,6728.333000000001,91.542,351.569,348.827,0.0
52474.0,STARLINK-3855,PAYLOAD,2022-05-30 11:27:20,15.73144659,0.0001543,53.2142,147.1635,26.3104,333.7994,0.00048058,0.00067208,0.0,0 STARLINK-3855,1 52474U 22049Z   22150.47732620  .00067208  00000-0  48058-3 0  9991,2 52474  53.2142 147.1635 0001543  26.3104 333.7994 15.73144659  3968,6728.053000000001,91.536,350.956,348.88,0.0
52474.0,STARLINK-3855,PAYLOAD,2022-05-30 14:00:01,15.73205451,0.0002363,53.2139,146.64,22.8587,218.0022,0.0001409,0.00019204,0.0,0 STARLINK-3855,1 52474U 22049Z   22150.58334491  .00019204  00000-0  14090-3 0  9999,2 52474  53.2139 146.6400 0002363  22.8587 218.0022 15.73205451  1306,6727.88,91.533,351.334,348.155,0.0
52474.0,STARLINK-3855,PAYLOAD,2022-05-30 22:00:00,15.73212001,0.000218,53.2144,144.9885,25.504,304.2949,0.00038643,0.00053993,0.0,0 STARLINK-3855,1 52474U 22049Z   22150.91667824  .00053993  00000-0  38643-3 0  9998,2 52474  53.2144 144.9885 0002180  25.5040 304.2949 15.73212001  1306,6727.861,91.532,351.1930000000001,348.259,0.0
52474.0,STARLINK-3855,PAYLOAD,2022-05-31 05:45:06,15.73248585,0.0002302,53.2145,143.3904,21.7144,338.3973,0.00036304,0.00050748,0.0,0 STARLINK-3855,1 52474U 22049Z   22151.23966192  .00050748  00000-0  36304-3 0  9991,2 52474  53.2145 143.3904 0002302  21.7144 338.3973 15.73248585  3922,6727.757,91.53,351.17,348.0730000000001,0.0
